{
    "links": {
        "self": "http://www.neowsapp.com/rest/v1/neo/3843840?api_key=iIulBulltgU6a56xZRHN4H3l9WmuAYTsLGpBGhQ2"
    },
    "id": "3843840",
    "neo_reference_id": "3843840",
    "name": "(A/2019 Q2)",
    "designation": "2019 Q2",
    "nasa_jpl_url": "http://ssd.jpl.nasa.gov/sbdb.cgi?sstr=3843840",
    "absolute_magnitude_h": 18.167,
    "estimated_diameter": {
        "kilometers": {
            "estimated_diameter_min": 0.6182369767,
            "estimated_diameter_max": 1.3824199061
        },
        "meters": {
            "estimated_diameter_min": 618.2369766819,
            "estimated_diameter_max": 1382.4199060647
        },
        "miles": {
            "estimated_diameter_min": 0.3841545284,
            "estimated_diameter_max": 0.8589956395
        },
        "feet": {
            "estimated_diameter_min": 2028.336602577,
            "estimated_diameter_max": 4535.4985246132
        }
    },
    "is_potentially_hazardous_asteroid": false,
    "close_approach_data": [
        {
            "close_approach_date": "2019-08-28",
            "close_approach_date_full": "2019-Aug-28 06:45",
            "epoch_date_close_approach": 1566974700000,
            "relative_velocity": {
                "kilometers_per_second": "63.4006231229",
                "kilometers_per_hour": "228242.2432425275",
                "miles_per_hour": "141820.8538636694"
            },
            "miss_distance": {
                "astronomical": "0.4343787444",
                "lunar": "168.9733315716",
                "kilometers": "64982134.935514428",
                "miles": "40378026.2949699864"
            },
            "orbiting_body": "Earth"
        }
    ],
    "orbital_data": {
        "orbit_id": "4",
        "orbit_determination_date": "2020-09-24 20:19:45",
        "first_observation_date": "2019-08-24",
        "last_observation_date": "2019-10-09",
        "data_arc_in_days": 46,
        "observations_used": 61,
        "orbit_uncertainty": "6",
        "minimum_orbit_intersection": ".257783",
        "jupiter_tisserand_invariant": "-1.205",
        "epoch_osculation": "2458729.5",
        "eccentricity": ".9789235216249974",
        "semi_major_axis": "59.68316661879374",
        "inclination": "159.0277466665655",
        "ascending_node_longitude": "187.954522737369",
        "orbital_period": "168413.2330435958",
        "perihelion_distance": "1.257910970592683",
        "perihelion_argument": "176.2745252002395",
        "aphelion_distance": "118.1084222669948",
        "perihelion_time": "2458686.876898990933",
        "mean_anomaly": ".09111110858665161",
        "mean_motion": ".002137599246175683",
        "equinox": "J2000",
        "orbit_class": {
            "orbit_class_type": "AMO",
            "orbit_class_description": "Near-Earth asteroid orbits similar to that of 1221 Amor",
            "orbit_class_range": "1.017 AU < q (perihelion) < 1.3 AU"
        }
    },
    "is_sentry_object": false
}